ONEWEB-0340             
1 49206U 21083W   24170.11279291  .00000033  00000+0  51104-4 0  9991
2 49206  87.9145 120.5872 0001935  83.7024 276.4328 13.18684788135177
ONEWEB-0341             
1 49207U 21083X   24170.42420924  .00000047  00000+0  87555-4 0  9991
2 49207  87.9147 120.5394 0001936  60.2038 299.9287 13.18685648135232
ONEWEB-0342             
1 49208U 21083Y   24169.96449493  .00000031  00000+0  44373-4 0  9995
2 49208  87.9207  59.5610 0002109  78.5858 281.5512 13.20772286140521
ONEWEB-0343             
1 49209U 21083Z   24169.88832377  .00000089  00000+0  19211-3 0  9999
2 49209  87.9138 120.6530 0002124  64.5293 295.6058 13.18686117133922
ONEWEB-0344             
1 49210U 21083AA  24169.84476126 -.00000285  00000+0 -81473-3 0  9992
2 49210  87.8935 105.4252 0001638  69.3685 290.7620 13.13470022135156
ONEWEB-0345             
1 49211U 21083AB  24170.54781900 -.00000269  00000+0 -77116-3 0  9992
2 49211  87.8930 105.2608 0001585  69.6739 290.4561 13.13470791136558
ONEWEB-0346             
1 49212U 21083AC  24169.89780637  .00000070  00000+0  14465-3 0  9991
2 49212  87.9143 120.6528 0001761  91.0147 269.1186 13.18684640133868
ONEWEB-0348             
1 49213U 21083AD  24170.40955857  .00000095  00000+0  20108-3 0  9997
2 49213  87.9216  59.4447 0001194  80.2168 279.9100 13.20771689141915
